COMMENT,ORIGINATOR,NORAD_CAT_ID,OBJECT_NAME,OBJECT_TYPE,CLASSIFICATION_TYPE,INTLDES,EPOCH,EPOCH_MICROSECONDS,MEAN_MOTION,ECCENTRICITY,INCLINATION,RA_OF_ASC_NODE,ARG_OF_PERICENTER,MEAN_ANOMALY,EPHEMERIS_TYPE,ELEMENT_SET_NO,REV_AT_EPOCH,BSTAR,MEAN_MOTION_DOT,MEAN_MOTION_DDOT,FILE,TLE_LINE0,TLE_LINE1,TLE_LINE2,OBJECT_ID,OBJECT_NUMBER,SEMIMAJOR_AXIS,PERIOD,APOGEE,PERIGEE,DECAYED
"GENERATED VIA SPACETRACK.ORG API","18 SPCS","48886","SPACEBEE-102","PAYLOAD","U","21059H","2021-11-15 15:01:22","232064","15.12553628","0.0010111","97.5311","86.3466","120.1675","240.0559","0","999","2158","0.00013701","0.00002326","0","3215681","0 SPACEBEE-102","1 48886U 21059H   21319.62595176  .00002326  00000-0  13701-3 0  9996","2 48886  97.5311  86.3466 0010111 120.1675 240.0559 15.12553628 21580","2021-059H","48886","6906.553","95.203","535.401","521.434","0"
"GENERATED VIA SPACETRACK.ORG API","18 SPCS","48886","SPACEBEE-102","PAYLOAD","U","21059H","2021-11-15 19:47:09","663360","15.12554518","0.0010118","97.5312","86.5425","119.5739","240.6501","0","999","2161","0.00013332","0.00002262","0","3215928","0 SPACEBEE-102","1 48886U 21059H   21319.82441740  .00002262  00000-0  13332-3 0  9994","2 48886  97.5312  86.5425 0010118 119.5739 240.6501 15.12554518 21614","2021-059H","48886","6906.550","95.203","535.403","521.427","0"
"GENERATED VIA SPACETRACK.ORG API","18 SPCS","48886","SPACEBEE-102","PAYLOAD","U","21059H","2021-11-16 02:08:12","884928","15.12555857","0.0010121","97.5312","86.8036","118.755","241.4698","0","999","2165","0.0001339","0.00002272","0","3216237","0 SPACEBEE-102","1 48886U 21059H   21320.08903802  .00002272  00000-0  13390-3 0  9991","2 48886  97.5312  86.8036 0010121 118.7550 241.4698 15.12555857 21658","2021-059H","48886","6906.546","95.203","535.401","521.421","0"
"GENERATED VIA SPACETRACK.ORG API","18 SPCS","48886","SPACEBEE-102","PAYLOAD","U","21059H","2021-11-16 08:29:16","47744","15.12558508","0.0010131","97.5312","87.0648","117.9429","242.2828","0","999","2169","0.00015205","0.00002589","0","3216827","0 SPACEBEE-102","1 48886U 21059H   21320.35365796  .00002589  00000-0  15205-3 0  9993","2 48886  97.5312  87.0648 0010131 117.9429 242.2828 15.12558508 21691","2021-059H","48886","6906.538","95.203","535.400","521.406","0"
"GENERATED VIA SPACETRACK.ORG API","18 SPCS","48886","SPACEBEE-102","PAYLOAD","U","21059H","2021-11-16 19:36:06","613344","15.12560116","0.0010151","97.5314","87.5218","116.5529","243.6744","0","999","2176","0.00013867","0.00002355","0","3217236","0 SPACEBEE-102","1 48886U 21059H   21320.81674321  .00002355  00000-0  13867-3 0  9994","2 48886  97.5314  87.5218 0010151 116.5529 243.6744 15.12560116 21767","2021-059H","48886","6906.533","95.203","535.409","521.387","0"
"GENERATED VIA SPACETRACK.ORG API","18 SPCS","48886","SPACEBEE-102","PAYLOAD","U","21059H","2021-11-17 08:18:12","875040","15.12562398","0.001016","97.5315","88.0442","114.9439","245.2848","0","999","2184","0.00013011","0.00002206","0","3217494","0 SPACEBEE-102","1 48886U 21059H   21321.34598235  .00002206  00000-0  13011-3 0  9998","2 48886  97.5315  88.0442 0010160 114.9439 245.2848 15.12562398 21841","2021-059H","48886","6906.526","95.203","535.408","521.374","0"
"GENERATED VIA SPACETRACK.ORG API","18 SPCS","48886","SPACEBEE-102","PAYLOAD","U","21059H","2021-11-17 08:18:12","875040","15.12562398","0.001016","97.5315","88.0442","114.9439","245.2848","0","999","2184","0.00013011","0.00002206","0","3217692","0 SPACEBEE-102","1 48886U 21059H   21321.34598235  .00002206  00000-0  13011-3 0  9998","2 48886  97.5315  88.0442 0010160 114.9439 245.2848 15.12562398 21841","2021-059H","48886","6906.526","95.203","535.408","521.374","0"
"GENERATED VIA SPACETRACK.ORG API","18 SPCS","48886","SPACEBEE-102","PAYLOAD","U","21059H","2021-11-17 14:39:15","995520","15.12563246","0.0010169","97.5316","88.3054","114.1468","246.0828","0","999","2188","0.00012352","0.00002091","0","3217982","0 SPACEBEE-102","1 48886U 21059H   21321.61060180  .00002091  00000-0  12352-3 0  9990","2 48886  97.5316  88.3054 0010169 114.1468 246.0828 15.12563246 21881","2021-059H","48886","6906.523","95.203","535.412","521.365","0"
"GENERATED VIA SPACETRACK.ORG API","18 SPCS","48886","SPACEBEE-102","PAYLOAD","U","21059H","2021-11-18 14:28:12","526464","15.12567108","0.0010193","97.5319","89.2849","111.1887","249.0433","0","999","2203","0.00011122","0.00001877","0","3218461","0 SPACEBEE-102","1 48886U 21059H   21322.60292276  .00001877  00000-0  11122-3 0  9998","2 48886  97.5319  89.2849 0010193 111.1887 249.0433 15.12567108 22039","2021-059H","48886","6906.512","95.202","535.416","521.337","0"
"GENERATED VIA SPACETRACK.ORG API","18 SPCS","48886","SPACEBEE-102","PAYLOAD","U","21059H","2021-11-18 14:28:12","526464","15.12567108","0.0010193","97.5319","89.2849","111.1887","249.0433","0","999","2203","0.00011122","0.00001877","0","3218604","0 SPACEBEE-102","1 48886U 21059H   21322.60292276  .00001877  00000-0  11122-3 0  9998","2 48886  97.5319  89.2849 0010193 111.1887 249.0433 15.12567108 22039","2021-059H","48886","6906.512","95.202","535.416","521.337","0"
"GENERATED VIA SPACETRACK.ORG API","18 SPCS","48886","SPACEBEE-102","PAYLOAD","U","21059H","2021-11-18 19:13:59","801376","15.12567761","0.0010194","97.5319","89.4808","110.5978","249.6347","0","999","2206","0.00010572","0.00001781","0","3218669","0 SPACEBEE-102","1 48886U 21059H   21322.80138659  .00001781  00000-0  10572-3 0  9996","2 48886  97.5319  89.4808 0010194 110.5978 249.6347 15.12567761 22069","2021-059H","48886","6906.510","95.202","535.415","521.334","0"
"GENERATED VIA SPACETRACK.ORG API","18 SPCS","48886","SPACEBEE-102","PAYLOAD","U","21059H","2021-11-19 07:56:05","866944","15.12570071","0.0010201","97.532","90.0031","109.007","251.2267","0","999","2214","0.00011213","0.00001893","0","3219209","0 SPACEBEE-102","1 48886U 21059H   21323.33062346  .00001893  00000-0  11213-3 0  9991","2 48886  97.5320  90.0031 0010201 109.0070 251.2267 15.12570071 22149","2021-059H","48886","6906.502","95.202","535.413","521.322","0"
"GENERATED VIA SPACETRACK.ORG API","18 SPCS","48886","SPACEBEE-102","PAYLOAD","U","21059H","2021-11-19 14:17:08","875104","15.1257127","0.0010219","97.5321","90.2643","108.2318","252.0025","0","999","2218","0.00011644","0.00001968","0","3219247","0 SPACEBEE-102","1 48886U 21059H   21323.59524161  .00001968  00000-0  11644-3 0  9998","2 48886  97.5321  90.2643 0010219 108.2318 252.0025 15.12571270 22183","2021-059H","48886","6906.499","95.202","535.422","521.306","0"
"GENERATED VIA SPACETRACK.ORG API","18 SPCS","48886","SPACEBEE-102","PAYLOAD","U","21059H","2021-11-20 01:23:59","83008","15.12572584","0.0010223","97.5322","90.7215","106.8658","253.3695","0","999","2225","0.00010769","0.00001815","0","3219603","0 SPACEBEE-102","1 48886U 21059H   21324.05832272  .00001815  00000-0  10769-3 0  9993","2 48886  97.5322  90.7215 0010223 106.8658 253.3695 15.12572584 22254","2021-059H","48886","6906.495","95.202","535.420","521.299","0"
"GENERATED VIA SPACETRACK.ORG API","18 SPCS","48886","SPACEBEE-102","PAYLOAD","U","21059H","2021-11-20 07:45:02","61792","15.12574098","0.0010221","97.5322","90.9827","106.0725","254.1632","0","999","2229","0.00012019","0.00002034","0","3220049","0 SPACEBEE-102","1 48886U 21059H   21324.32294053  .00002034  00000-0  12019-3 0  9996","2 48886  97.5322  90.9827 0010221 106.0725 254.1632 15.12574098 22296","2021-059H","48886","6906.490","95.202","535.414","521.296","0"
"GENERATED VIA SPACETRACK.ORG API","18 SPCS","48886","SPACEBEE-102","PAYLOAD","U","21059H","2021-11-20 15:41:20","748768","15.12575569","0.0010226","97.5323","91.3091","105.1286","255.1077","0","999","2234","0.0001274","0.0000216","0","3220242","0 SPACEBEE-102","1 48886U 21059H   21324.65371237  .00002160  00000-0  12740-3 0  9993","2 48886  97.5323  91.3091 0010226 105.1286 255.1077 15.12575569 22346","2021-059H","48886","6906.486","95.202","535.413","521.288","0"
"GENERATED VIA SPACETRACK.ORG API","18 SPCS","48886","SPACEBEE-102","PAYLOAD","U","21059H","2021-11-21 02:48:10","843488","15.12577484","0.0010229","97.5323","91.7662","103.7592","256.4778","0","999","2241","0.00013088","0.0000222","0","3220381","0 SPACEBEE-102","1 48886U 21059H   21325.11679217  .00002220  00000-0  13088-3 0  9997","2 48886  97.5323  91.7662 0010229 103.7592 256.4778 15.12577484 22419","2021-059H","48886","6906.480","95.202","535.410","521.280","0"
"GENERATED VIA SPACETRACK.ORG API","18 SPCS","48886","SPACEBEE-102","PAYLOAD","U","21059H","2021-11-21 02:48:10","843488","15.12577484","0.0010229","97.5323","91.7662","103.7592","256.4778","0","999","2241","0.00013088","0.0000222","0","3220686","0 SPACEBEE-102","1 48886U 21059H   21325.11679217  .00002220  00000-0  13088-3 0  9997","2 48886  97.5323  91.7662 0010229 103.7592 256.4778 15.12577484 22419","2021-059H","48886","6906.480","95.202","535.410","521.280","0"
"GENERATED VIA SPACETRACK.ORG API","18 SPCS","48886","SPACEBEE-102","PAYLOAD","U","21059H","2021-11-21 18:40:48","42912","15.12580635","0.0010238","97.5324","92.4192","101.8644","258.3735","0","999","2251","0.00014231","0.0000242","0","3220934","0 SPACEBEE-102","1 48886U 21059H   21325.77833383  .00002420  00000-0  14231-3 0  9998","2 48886  97.5324  92.4192 0010238 101.8644 258.3735 15.12580635 22510","2021-059H","48886","6906.470","95.202","535.406","521.264","0"
"GENERATED VIA SPACETRACK.ORG API","18 SPCS","48886","SPACEBEE-102","PAYLOAD","U","21059H","2021-11-22 20:04:59","265120","15.125855","0.0010245","97.5325","93.4639","98.7719","261.4672","0","999","2267","0.00014297","0.00002432","0","3221548","0 SPACEBEE-102","1 48886U 21059H   21326.83679705  .00002432  00000-0  14297-3 0  9997","2 48886  97.5325  93.4639 0010245  98.7719 261.4672 15.12585500 22671","2021-059H","48886","6906.456","95.201","535.396","521.245","0"
